1 39070U 13004A   26072.01303115  .00000081  00000-0  00000+0 0  9996
2 39070   3.3802  29.5201 0004160 341.1608 350.4280  1.00265345 45726
1 39070U 13004A   26072.53565813  .00000081  00000-0  00000-0 0  9999
2 39070   3.3809  29.5303 0004162 341.6557 178.5716  1.00265541 45738
1 39070U 13004A   26072.82083498  .00000081  00000-0  00000-0 0  9995
2 39070   3.3814  29.5358 0004174 341.8217 281.3384  1.00265644 45730
1 39070U 13004A   26073.24871014  .00000081  00000-0  00000-0 0  9991
2 39070   3.3820  29.5443 0004190 342.2550  75.3437  1.00265798 45746
1 39070U 13004A   26073.62451788  .00000081  00000-0  00000-0 0  9995
2 39070   3.3825  29.5514 0004194 342.5125 210.7323  1.00265934 45746
1 39070U 13004A   26073.81922947  .00000081  00000-0  00000-0 0  9996
2 39070   3.3828  29.5551 0004202 342.6572 280.8679  1.00266002 45746
1 39070U 13004A   26074.31270502  .00000081  00000-0  00000-0 0  9995
2 39070   3.3836  29.5646 0004218 343.0970  98.5456  1.00266182 45751
1 39070U 13004A   26074.65475425  .00000081  00000-0  00000-0 0  9993
2 39070   3.3841  29.5713 0004221 343.3973 221.7069  1.00266311 45756
1 39070U 13004A   26074.81756238  .00000081  00000-0  00000-0 0  9995
2 39070   3.3843  29.5743 0004226 343.5239 280.3453  1.00266366 45751
1 39070U 13004A   26075.24545493  .00000081  00000-0  00000-0 0  9992
2 39070   3.3850  29.5827 0004241 343.9226  74.3928  1.00266521 45761
1 39070U 13004A   26075.81589772  .00000082  00000-0  00000+0 0  9993
2 39070   3.3858  29.5937 0004250 344.4134 279.8021  1.00266726 45768
1 39070U 13004A   26076.15745207  .00000082  00000-0  00000+0 0  9998
2 39070   3.3863  29.6004 0004262 344.7222  42.7764  1.00266848 45771
1 39070U 13004A   26076.24377777  .00000082  00000-0  00000-0 0  9992
2 39070   3.3864  29.6020 0004265 344.7968  73.8611  1.00266881 45773
1 39070U 13004A   26076.61011196  .00000082  00000-0  00000-0 0  9993
2 39070   3.3870  29.6090 0004271 345.1431 205.7428  1.00267014 45775
1 39070U 13004A   26076.81433237  .00000083  00000-0  00000-0 0  9990
2 39070   3.3873  29.6127 0004273 345.3192 279.2804  1.00267085 45779
1 39070U 13004A   26076.81433237  .00000083  00000-0  00000+0 0  9999
2 39070   3.3873  29.6127 0004273 345.3191 279.2804  1.00267085 45778
1 39070U 13004A   26077.24213610  .00000083  00000-0  00000-0 0  9999
2 39070   3.3879  29.6210 0004288 345.6627  73.3521  1.00267239 45781
1 39070U 13004A   26077.45611697  .00000083  00000-0  00000+0 0  9998
2 39070   3.3882  29.6250 0004295 345.8749 150.3765  1.00267318 45788
1 39070U 13004A   26077.60530718  .00000083  00000-0  00000-0 0  9990
2 39070   3.3884  29.6279 0004297 346.0272 204.0746  1.00267370 45781
1 39070U 13004A   26077.81250097  .00000083  00000-0  00000+0 0  9991
2 39070   3.3887  29.6318 0004297 346.2125 278.6762  1.00267442 45782
1 39070U 13004A   26077.88359404  .00000083  00000-0  00000-0 0  9991
2 39070   3.3889  29.6332 0004298 346.2642 304.2855  1.00267467 45781
1 39070U 13004A   26078.30157127  .00000083  00000-0  00000-0 0  9997
2 39070   3.3895  29.6411 0004314 346.5754  94.8436  1.00267619 45799
1 39070U 13004A   26078.81080631  .00000084  00000-0  00000+0 0  9998
2 39070   3.3902  29.6506 0004321 347.0886 278.1402  1.00267801 45796
1 39070U 13004A   26078.88185474  .00000084  00000-0  00000-0 0  9997
2 39070   3.3903  29.6520 0004321 347.1366 303.7373  1.00267825 45795
1 39070U 13004A   26079.16731326  .00000083  00000-0  00000+0 0  9990
2 39070   3.3907  29.6574 0004329 347.3280  46.5827  1.00267928 45805
1 39070U 13004A   26079.16731328  .00000083  00000-0  00000-0 0  9993
2 39070   3.3907  29.6574 0004329 347.3280  46.5827  1.00267928 45805
1 39070U 13004A   26079.54906082  .00000083  00000-0  00000+0 0  9995
2 39070   3.3913  29.6645 0004346 347.7331 183.9710  1.00268068 45804
1 39070U 13004A   26079.54906083  .00000083  00000-0  00000-0 0  9997
2 39070   3.3913  29.6645 0004346 347.7331 183.9710  1.00268068 45804
1 39070U 13004A   26079.80911906  .00000083  00000-0  00000+0 0  9995
2 39070   3.3916  29.6693 0004344 347.9753 277.5980  1.00268158 45807
1 39070U 13004A   26079.88035935  .00000083  00000-0  00000-0 0  9993
2 39070   3.3917  29.6706 0004343 348.0221 303.2656  1.00268182 45808
1 39070U 13004A   26080.15733370  .00000083  00000-0  00000-0 0  9993
2 39070   3.3921  29.6758 0004350 348.1862  43.0765  1.00268282 45812
1 39070U 13004A   26080.56086604  .00000082  00000-0  00000-0 0  9998
2 39070   3.3927  29.6832 0004368 348.6200 188.2998  1.00268430 45816
1 39070U 13004A   26080.80742279  .00000081  00000-0  00000-0 0  9991
2 39070   3.3931  29.6877 0004365 348.8580 277.0580  1.00268515 45818
1 39070U 13004A   26081.29152955  .00000080  00000-0  00000-0 0  9990
2 39070   3.3937  29.6965 0004377 349.1333  91.5238  1.00268690 45829
1 39070U 13004A   26081.73433714  .00000079  00000-0  00000-0 0  9992
2 39070   3.3944  29.7045 0004385 349.6503 250.8416  1.00268848 45823
1 39070U 13004A   26082.23352780  .00000077  00000-0  00000-0 0  9999
2 39070   3.3951  29.7135 0004390 349.8952  70.7832  1.00269026 45838
1 39070U 13004A   26082.55159463  .00000076  00000-0  00000+0 0  9995
2 39070   3.3955  29.7193 0004403 350.2748 185.2125  1.00269142 45836
1 39070U 13004A   26082.80394279  .00000075  00000-0  00000-0 0  9999
2 39070   3.3959  29.7238 0004399 350.5126 276.0620  1.00269229 45832
1 39070U 13004A   26083.23178782  .00000074  00000-0  00000-0 0  9995
2 39070   3.3965  29.7315 0004404 350.6737  70.3353  1.00269383 45841
1 39070U 13004A   26083.43378150  .00000073  00000-0  00000+0 0  9996
2 39070   3.3968  29.7352 0004413 350.8924 143.0281  1.00269456 45844
1 39070U 13004A   26083.87361727  .00000071  00000-0  00000-0 0  9995
2 39070   3.3974  29.7430 0004409 351.3114 301.3724  1.00269610 45843
1 39070U 13004A   26084.63459998  .00000068  00000-0  00000-0 0  9994
2 39070   3.3985  29.7567 0004424 351.8568 215.5118  1.00269883 45857
1 39070U 13004A   26084.80052632  .00000067  00000-0  00000+0 0  9995
2 39070   3.3988  29.7595 0004420 351.9894 275.2722  1.00269940 45858
1 39070U 13004A   26084.87191282  .00000067  00000-0  00000-0 0  9998
2 39070   3.3989  29.7608 0004418 352.0135 301.0159  1.00269966 45851
1 39070U 13004A   26085.16040046  .00000066  00000-0  00000+0 0  9990
2 39070   3.3993  29.7660 0004420 352.0675  45.0947  1.00270069 45863
1 39070U 13004A   26085.22841720  .00000066  00000-0  00000-0 0  9996
2 39070   3.3994  29.7672 0004423 352.0982  69.6155  1.00270093 45861
1 39070U 13004A   26085.48049729  .00000065  00000-0  00000+0 0  9991
2 39070   3.3997  29.7717 0004430 352.3312 160.3738  1.00270185 45860
1 39070U 13004A   26085.79884558  .00000064  00000-0  00000+0 0  9991
2 39070   3.4002  29.7774 0004427 352.6253 274.9917  1.00270296 45868
1 39070U 13004A   26085.87018410  .00000064  00000-0  00000+0 0  9996
2 39070   3.4003  29.7787 0004425 352.6565 300.7109  1.00270320 45866
1 39070U 13004A   26085.87018410  .00000064  00000-0  00000-0 0  9997
2 39070   3.4003  29.7787 0004425 352.6565 300.7109  1.00270320 45866
1 39070U 13004A   26086.14098884  .00000064  00000-0  00000+0 0  9990
2 39070   3.4007  29.7836 0004427 352.7080  38.4097  1.00270416 45878
1 39070U 13004A   26086.22671649  .00000063  00000-0  00000-0 0  9995
2 39070   3.4008  29.7851 0004429 352.7323  69.3300  1.00270448 45873
1 39070U 13004A   26086.56082340  .00000063  00000-0  00000-0 0  9996
2 39070   3.4013  29.7912 0004435 353.0146 189.6480  1.00270568 45879
1 39070U 13004A   26086.65454334  .00000063  00000-0  00000+0 0  9991
2 39070   3.4014  29.7928 0004434 353.1032 223.3889  1.00270601 45878
1 39070U 13004A   26086.79702397  .00000063  00000-0  00000+0 0  9991
2 39070   3.4016  29.7954 0004432 353.2060 274.7164  1.00270649 45877
1 39070U 13004A   26086.79702398  .00000063  00000-0  00000-0 0  9993
2 39070   3.4016  29.7954 0004432 353.2061 274.7164  1.00270649 45878
1 39070U 13004A   26087.18245822  .00000062  00000-0  00000+0 0  9999
2 39070   3.4022  29.8024 0004434 353.3053  53.7448  1.00270785 45880
1 39070U 13004A   26087.27503131  .00000062  00000-0  00000-0 0  9990
2 39070   3.4023  29.8040 0004437 353.3402  87.1255  1.00270819 45885
1 39070U 13004A   26087.54697647  .00000062  00000-0  00000+0 0  9995
2 39070   3.4028  29.8090 0004440 353.5511 185.0771  1.00270916 45881
1 39070U 13004A   26087.54697647  .00000062  00000-0  00000-0 0  9996
2 39070   3.4028  29.8090 0004440 353.5511 185.0771  1.00270916 45881
1 39070U 13004A   26087.79534780  .00000062  00000-0  00000+0 0  9990
2 39070   3.4031  29.8134 0004437 353.7258 274.5558  1.00271003 45885
1 39070U 13004A   26087.79534780  .00000062  00000-0  00000-0 0  9991
2 39070   3.4031  29.8134 0004437 353.7258 274.5558  1.00271003 45885
1 39070U 13004A   26088.15195359  .00000063  00000-0  00000+0 0  9997
2 39070   3.4036  29.8200 0004440 353.8369  43.1667  1.00271129 45893
1 39070U 13004A   26088.33565891  .00000063  00000-0  00000-0 0  9990
2 39070   3.4039  29.8233 0004443 353.9178 109.3971  1.00271195 45890
1 39070U 13004A   26089.07896012  .00000064  00000-0  00000+0 0  9994
2 39070   3.4050  29.8371 0004445 354.3179  17.3029  1.00271456 45908
1 39070U 13004A   26089.43550816  .00000065  00000-0  00000+0 0  9994
2 39070   3.4056  29.8436 0004449 354.4818 145.8409  1.00271583 45901
1 39070U 13004A   26089.43550817  .00000065  00000-0  00000-0 0  9996
2 39070   3.4056  29.8436 0004449 354.4818 145.8409  1.00271583 45901
1 39070U 13004A   26089.79197424  .00000066  00000-0  00000-0 0  9997
2 39070   3.4061  29.8503 0004448 354.6685 274.3266  1.00271709 45904
1 39070U 13004A   26090.13308522  .00000067  00000-0  00000+0 0  9990
2 39070   3.4066  29.8568 0004452 354.8300  37.2945  1.00271828 45914
